[{"OBJECT_NAME":"SVYATOBOR 1 (RS60S)","OBJECT_ID":"2023-091X","EPOCH":"2026-03-09T23:06:11.081664","MEAN_MOTION":15.2482043,"ECCENTRICITY":0.00111996,"INCLINATION":97.5206,"RA_OF_ASC_NODE":132.3062,"ARG_OF_PERICENTER":84.4206,"MEAN_ANOMALY":275.8308,"EPHEMERIS_TYPE":0,"CLASSIFICATION_TYPE":"U","NORAD_CAT_ID":57187,"ELEMENT_SET_NO":999,"REV_AT_EPOCH":14918,"BSTAR":0.00046454276,"MEAN_MOTION_DOT":0.00011484,"MEAN_MOTION_DDOT":0},{"OBJECT_NAME":"STARLINK-30312","OBJECT_ID":"2023-122K","EPOCH":"2026-03-09T10:33:28.264608","MEAN_MOTION":15.26737903,"ECCENTRICITY":0.00016931,"INCLINATION":43.003,"RA_OF_ASC_NODE":93.4926,"ARG_OF_PERICENTER":243.6138,"MEAN_ANOMALY":116.4539,"EPHEMERIS_TYPE":0,"CLASSIFICATION_TYPE":"U","NORAD_CAT_ID":57641,"ELEMENT_SET_NO":999,"REV_AT_EPOCH":14217,"BSTAR":7.0281586e-5,"MEAN_MOTION_DOT":1.626e-5,"MEAN_MOTION_DDOT":0}]
